ORBCOMM FM24            
1 25478U 98053D   25059.36554949  .00003298  00000+0  11349-2 0  9998
2 25478  45.0071  64.9128 0002493 333.6133  26.4588 14.37627065381786
ORBCOMM FM25            
1 25479U 98053E   25059.47404639  .00003326  00000+0  11445-2 0  9990
2 25479  45.0064  62.6566 0003345  22.3971 337.7022 14.37608424382093
ORBCOMM FM26            
1 25480U 98053F   25059.48605444  .00002777  00000+0  98055-3 0  9992
2 25480  45.0064  58.2997 0004226  60.8927 299.2343 14.36738033382010
ORBCOMM FM27            
1 25481U 98053G   25059.46336518  .00003344  00000+0  11505-2 0  9999
2 25481  45.0048  62.9436 0002337 298.9846  61.0768 14.37616842382029
ORBCOMM FM28            
1 25482U 98053H   25059.23930649  .00003813  00000+0  12983-2 0  9992
2 25482  45.0067   1.6850 0003063  89.8655 270.2544 14.37871468382677
ORBCOMM FM30            
1 25980U 99065A   25059.55763703  .00002844  00000+0  99962-3 0  9995
2 25980  45.0299 243.7647 0007036 180.9540 179.1296 14.36897355318829
ORBCOMM FM31            
1 25981U 99065B   25059.52711778  .00002780  00000+0  97919-3 0  9997
2 25981  45.0213 237.4339 0004417 201.5165 158.5498 14.36858096318371
ORBCOMM FM32            
1 25982U 99065C   25059.57056431  .00002506  00000+0  90433-3 0  9991
2 25982  45.0141 253.0727 0006198 200.6733 159.3865 14.35900470319119
