<?xml version="1.0" encoding="UTF-8"?>
<ndm xmlns:xsi="http://www.w3.org/2001/XMLSchema-instance" xsi:noNamespaceSchemaLocation="https://sanaregistry.org/r/ndmxml_unqualified/ndmxml-2.0.0-master-2.0.xsd">
<omm id="CCSDS_OMM_VERS" version="2.0">
<header><CREATION_DATE/><ORIGINATOR/></header><body><segment><metadata><OBJECT_NAME>ORBCOMM FM24</OBJECT_NAME><OBJECT_ID>1998-053D</OBJECT_ID><CENTER_NAME>EARTH</CENTER_NAME><REF_FRAME>TEME</REF_FRAME><TIME_SYSTEM>UTC</TIME_SYSTEM><MEAN_ELEMENT_THEORY>SGP4</MEAN_ELEMENT_THEORY></metadata><data><meanElements><EPOCH>2025-02-28T08:46:23.475936</EPOCH><MEAN_MOTION>14.37627065</MEAN_MOTION><ECCENTRICITY>.0002493</ECCENTRICITY><INCLINATION>45.0071</INCLINATION><RA_OF_ASC_NODE>64.9128</RA_OF_ASC_NODE><ARG_OF_PERICENTER>333.6133</ARG_OF_PERICENTER><MEAN_ANOMALY>26.4588</MEAN_ANOMALY></meanElements><tleParameters><EPHEMERIS_TYPE>0</EPHEMERIS_TYPE><CLASSIFICATION_TYPE>U</CLASSIFICATION_TYPE><NORAD_CAT_ID>25478</NORAD_CAT_ID><ELEMENT_SET_NO>999</ELEMENT_SET_NO><REV_AT_EPOCH>38178</REV_AT_EPOCH><BSTAR>.11349E-2</BSTAR><MEAN_MOTION_DOT>.3298E-4</MEAN_MOTION_DOT><MEAN_MOTION_DDOT>0</MEAN_MOTION_DDOT></tleParameters></data></segment></body></omm>
<omm id="CCSDS_OMM_VERS" version="2.0">
<header><CREATION_DATE/><ORIGINATOR/></header><body><segment><metadata><OBJECT_NAME>ORBCOMM FM25</OBJECT_NAME><OBJECT_ID>1998-053E</OBJECT_ID><CENTER_NAME>EARTH</CENTER_NAME><REF_FRAME>TEME</REF_FRAME><TIME_SYSTEM>UTC</TIME_SYSTEM><MEAN_ELEMENT_THEORY>SGP4</MEAN_ELEMENT_THEORY></metadata><data><meanElements><EPOCH>2025-02-28T11:22:37.608096</EPOCH><MEAN_MOTION>14.37608424</MEAN_MOTION><ECCENTRICITY>.0003345</ECCENTRICITY><INCLINATION>45.0064</INCLINATION><RA_OF_ASC_NODE>62.6566</RA_OF_ASC_NODE><ARG_OF_PERICENTER>22.3971</ARG_OF_PERICENTER><MEAN_ANOMALY>337.7022</MEAN_ANOMALY></meanElements><tleParameters><EPHEMERIS_TYPE>0</EPHEMERIS_TYPE><CLASSIFICATION_TYPE>U</CLASSIFICATION_TYPE><NORAD_CAT_ID>25479</NORAD_CAT_ID><ELEMENT_SET_NO>999</ELEMENT_SET_NO><REV_AT_EPOCH>38209</REV_AT_EPOCH><BSTAR>.11445E-2</BSTAR><MEAN_MOTION_DOT>.3326E-4</MEAN_MOTION_DOT><MEAN_MOTION_DDOT>0</MEAN_MOTION_DDOT></tleParameters></data></segment></body></omm>
<omm id="CCSDS_OMM_VERS" version="2.0">
<header><CREATION_DATE/><ORIGINATOR/></header><body><segment><metadata><OBJECT_NAME>ORBCOMM FM26</OBJECT_NAME><OBJECT_ID>1998-053F</OBJECT_ID><CENTER_NAME>EARTH</CENTER_NAME><REF_FRAME>TEME</REF_FRAME><TIME_SYSTEM>UTC</TIME_SYSTEM><MEAN_ELEMENT_THEORY>SGP4</MEAN_ELEMENT_THEORY></metadata><data><meanElements><EPOCH>2025-02-28T11:39:55.103616</EPOCH><MEAN_MOTION>14.36738033</MEAN_MOTION><ECCENTRICITY>.0004226</ECCENTRICITY><INCLINATION>45.0064</INCLINATION><RA_OF_ASC_NODE>58.2997</RA_OF_ASC_NODE><ARG_OF_PERICENTER>60.8927</ARG_OF_PERICENTER><MEAN_ANOMALY>299.2343</MEAN_ANOMALY></meanElements><tleParameters><EPHEMERIS_TYPE>0</EPHEMERIS_TYPE><CLASSIFICATION_TYPE>U</CLASSIFICATION_TYPE><NORAD_CAT_ID>25480</NORAD_CAT_ID><ELEMENT_SET_NO>999</ELEMENT_SET_NO><REV_AT_EPOCH>38201</REV_AT_EPOCH><BSTAR>.98055E-3</BSTAR><MEAN_MOTION_DOT>.2777E-4</MEAN_MOTION_DOT><MEAN_MOTION_DDOT>0</MEAN_MOTION_DDOT></tleParameters></data></segment></body></omm>
<omm id="CCSDS_OMM_VERS" version="2.0">
<header><CREATION_DATE/><ORIGINATOR/></header><body><segment><metadata><OBJECT_NAME>ORBCOMM FM27</OBJECT_NAME><OBJECT_ID>1998-053G</OBJECT_ID><CENTER_NAME>EARTH</CENTER_NAME><REF_FRAME>TEME</REF_FRAME><TIME_SYSTEM>UTC</TIME_SYSTEM><MEAN_ELEMENT_THEORY>SGP4</MEAN_ELEMENT_THEORY></metadata><data><meanElements><EPOCH>2025-02-28T11:07:14.751552</EPOCH><MEAN_MOTION>14.37616842</MEAN_MOTION><ECCENTRICITY>.0002337</ECCENTRICITY><INCLINATION>45.0048</INCLINATION><RA_OF_ASC_NODE>62.9436</RA_OF_ASC_NODE><ARG_OF_PERICENTER>298.9846</ARG_OF_PERICENTER><MEAN_ANOMALY>61.0768</MEAN_ANOMALY></meanElements><tleParameters><EPHEMERIS_TYPE>0</EPHEMERIS_TYPE><CLASSIFICATION_TYPE>U</CLASSIFICATION_TYPE><NORAD_CAT_ID>25481</NORAD_CAT_ID><ELEMENT_SET_NO>999</ELEMENT_SET_NO><REV_AT_EPOCH>38202</REV_AT_EPOCH><BSTAR>.11505E-2</BSTAR><MEAN_MOTION_DOT>.3344E-4</MEAN_MOTION_DOT><MEAN_MOTION_DDOT>0</MEAN_MOTION_DDOT></tleParameters></data></segment></body></omm>
<omm id="CCSDS_OMM_VERS" version="2.0">
<header><CREATION_DATE/><ORIGINATOR/></header><body><segment><metadata><OBJECT_NAME>ORBCOMM FM28</OBJECT_NAME><OBJECT_ID>1998-053H</OBJECT_ID><CENTER_NAME>EARTH</CENTER_NAME><REF_FRAME>TEME</REF_FRAME><TIME_SYSTEM>UTC</TIME_SYSTEM><MEAN_ELEMENT_THEORY>SGP4</MEAN_ELEMENT_THEORY></metadata><data><meanElements><EPOCH>2025-02-28T05:44:36.080736</EPOCH><MEAN_MOTION>14.37871468</MEAN_MOTION><ECCENTRICITY>.0003063</ECCENTRICITY><INCLINATION>45.0067</INCLINATION><RA_OF_ASC_NODE>1.6850</RA_OF_ASC_NODE><ARG_OF_PERICENTER>89.8655</ARG_OF_PERICENTER><MEAN_ANOMALY>270.2544</MEAN_ANOMALY></meanElements><tleParameters><EPHEMERIS_TYPE>0</EPHEMERIS_TYPE><CLASSIFICATION_TYPE>U</CLASSIFICATION_TYPE><NORAD_CAT_ID>25482</NORAD_CAT_ID><ELEMENT_SET_NO>999</ELEMENT_SET_NO><REV_AT_EPOCH>38267</REV_AT_EPOCH><BSTAR>.12983E-2</BSTAR><MEAN_MOTION_DOT>.3813E-4</MEAN_MOTION_DOT><MEAN_MOTION_DDOT>0</MEAN_MOTION_DDOT></tleParameters></data></segment></body></omm>
<omm id="CCSDS_OMM_VERS" version="2.0">
<header><CREATION_DATE/><ORIGINATOR/></header><body><segment><metadata><OBJECT_NAME>ORBCOMM FM30</OBJECT_NAME><OBJECT_ID>1999-065A</OBJECT_ID><CENTER_NAME>EARTH</CENTER_NAME><REF_FRAME>TEME</REF_FRAME><TIME_SYSTEM>UTC</TIME_SYSTEM><MEAN_ELEMENT_THEORY>SGP4</MEAN_ELEMENT_THEORY></metadata><data><meanElements><EPOCH>2025-02-28T13:22:59.839392</EPOCH><MEAN_MOTION>14.36897355</MEAN_MOTION><ECCENTRICITY>.0007036</ECCENTRICITY><INCLINATION>45.0299</INCLINATION><RA_OF_ASC_NODE>243.7647</RA_OF_ASC_NODE><ARG_OF_PERICENTER>180.9540</ARG_OF_PERICENTER><MEAN_ANOMALY>179.1296</MEAN_ANOMALY></meanElements><tleParameters><EPHEMERIS_TYPE>0</EPHEMERIS_TYPE><CLASSIFICATION_TYPE>U</CLASSIFICATION_TYPE><NORAD_CAT_ID>25980</NORAD_CAT_ID><ELEMENT_SET_NO>999</ELEMENT_SET_NO><REV_AT_EPOCH>31882</REV_AT_EPOCH><BSTAR>.99962E-3</BSTAR><MEAN_MOTION_DOT>.2844E-4</MEAN_MOTION_DOT><MEAN_MOTION_DDOT>0</MEAN_MOTION_DDOT></tleParameters></data></segment></body></omm>
<omm id="CCSDS_OMM_VERS" version="2.0">
<header><CREATION_DATE/><ORIGINATOR/></header><body><segment><metadata><OBJECT_NAME>ORBCOMM FM31</OBJECT_NAME><OBJECT_ID>1999-065B</OBJECT_ID><CENTER_NAME>EARTH</CENTER_NAME><REF_FRAME>TEME</REF_FRAME><TIME_SYSTEM>UTC</TIME_SYSTEM><MEAN_ELEMENT_THEORY>SGP4</MEAN_ELEMENT_THEORY></metadata><data><meanElements><EPOCH>2025-02-28T12:39:02.976192</EPOCH><MEAN_MOTION>14.36858096</MEAN_MOTION><ECCENTRICITY>.0004417</ECCENTRICITY><INCLINATION>45.0213</INCLINATION><RA_OF_ASC_NODE>237.4339</RA_OF_ASC_NODE><ARG_OF_PERICENTER>201.5165</ARG_OF_PERICENTER><MEAN_ANOMALY>158.5498</MEAN_ANOMALY></meanElements><tleParameters><EPHEMERIS_TYPE>0</EPHEMERIS_TYPE><CLASSIFICATION_TYPE>U</CLASSIFICATION_TYPE><NORAD_CAT_ID>25981</NORAD_CAT_ID><ELEMENT_SET_NO>999</ELEMENT_SET_NO><REV_AT_EPOCH>31837</REV_AT_EPOCH><BSTAR>.97919E-3</BSTAR><MEAN_MOTION_DOT>.278E-4</MEAN_MOTION_DOT><MEAN_MOTION_DDOT>0</MEAN_MOTION_DDOT></tleParameters></data></segment></body></omm>
<omm id="CCSDS_OMM_VERS" version="2.0">
<header><CREATION_DATE/><ORIGINATOR/></header><body><segment><metadata><OBJECT_NAME>ORBCOMM FM32</OBJECT_NAME><OBJECT_ID>1999-065C</OBJECT_ID><CENTER_NAME>EARTH</CENTER_NAME><REF_FRAME>TEME</REF_FRAME><TIME_SYSTEM>UTC</TIME_SYSTEM><MEAN_ELEMENT_THEORY>SGP4</MEAN_ELEMENT_THEORY></metadata><data><meanElements><EPOCH>2025-02-28T13:41:36.756384</EPOCH><MEAN_MOTION>14.35900470</MEAN_MOTION><ECCENTRICITY>.0006198</ECCENTRICITY><INCLINATION>45.0141</INCLINATION><RA_OF_ASC_NODE>253.0727</RA_OF_ASC_NODE><ARG_OF_PERICENTER>200.6733</ARG_OF_PERICENTER><MEAN_ANOMALY>159.3865</MEAN_ANOMALY></meanElements><tleParameters><EPHEMERIS_TYPE>0</EPHEMERIS_TYPE><CLASSIFICATION_TYPE>U</CLASSIFICATION_TYPE><NORAD_CAT_ID>25982</NORAD_CAT_ID><ELEMENT_SET_NO>999</ELEMENT_SET_NO><REV_AT_EPOCH>31911</REV_AT_EPOCH><BSTAR>.90433E-3</BSTAR><MEAN_MOTION_DOT>.2506E-4</MEAN_MOTION_DOT><MEAN_MOTION_DDOT>0</MEAN_MOTION_DDOT></tleParameters></data></segment></body></omm>

</ndm>
